SL-14 R/B               
1 16792U 86046B   26004.41459130  .00000874  00000+0  97843-4 0  9991
2 16792  82.4830 140.9007 0024531  81.0853 279.3138 14.85516220116862
SL-14 R/B               
1 16882U 86055B   26004.54632032  .00000846  00000+0  94769-4 0  9992
2 16882  82.5198 186.9417 0018851 180.1647 238.3243 14.85559513109849
AJISAI (EGS)            
1 16908U 86061A   26004.47981668 -.00000067  00000+0  21394-3 0  9991
2 16908  50.0103 290.7941 0011314 122.9869 350.6749 12.44514646460005
COSMOS 1812             
1 17295U 87003A   26004.17915844  .00166397  00000+0  83831-3 0  9990
2 17295  82.4860 267.6380 0004578  59.7974 300.3747 15.81173351134198
SL-14 R/B               
1 17567U 87024B   26004.40399770  .00000915  00000+0  10144-3 0  9995
2 17567  82.5288 153.1638 0019539 112.0314 248.2981 14.86055391 78581
COSMOS 1833             
1 17589U 87027A   26004.51242940  .00000354  00000+0  21498-3 0  9991
2 17589  70.9183 100.9078 0023617 300.0868  59.7911 14.13035984  1257
SL-16 R/B               
1 17590U 87027B   26004.53083258  .00000137  00000+0  91650-4 0  9997
2 17590  71.0031  51.6934 0006901 235.6640 124.3831 14.17156504  6255
SL-14 R/B               
1 17912U 87038B   26004.43323147  .00000850  00000+0  95870-4 0  9990
2 17912  82.5013 357.3235 0019870  21.5261 338.6786 14.85289284 69693
COSMOS 1844             
1 17973U 87041A   26004.40317245  .00000143  00000+0  99133-4 0  9991
2 17973  70.8987 169.7698 0028763 121.3367 239.0576 14.14538864994494
SL-14 R/B               
1 18153U 87055B   26004.48851550  .00000733  00000+0  81855-4 0  9994
2 18153  82.4982  49.5467 0019637 222.7827 137.1862 14.85548974 60407
COSMOS 1867             
1 18187U 87060A   26004.51769131  .00000029  00000+0  48524-4 0  9998
2 18187  65.0108 126.4156 0013802 273.4535  86.4971 14.31491094 10759
SL-14 R/B               
1 18749U 88001B   26004.21017773  .00000756  00000+0  84652-4 0  9992
2 18749  82.5127 256.0139 0019613  91.4214 268.9249 14.85451609 32450
