CCSDS_OMM_VERS = 2.0
CREATION_DATE  = 
ORIGINATOR     = 

OBJECT_NAME    = SL-14 R/B
OBJECT_ID      = 1986-046B
CENTER_NAME    = EARTH
REF_FRAME      = TEME
TIME_SYSTEM    = UTC
MEAN_ELEMENT_THEORY = SGP/SGP4

EPOCH          = 2026-01-04T09:57:00.688320
MEAN_MOTION    = 14.85516220
ECCENTRICITY   = .0024531
INCLINATION    = 82.4830
RA_OF_ASC_NODE = 140.9007
ARG_OF_PERICENTER = 81.0853
MEAN_ANOMALY   = 279.3138

EPHEMERIS_TYPE = 0
CLASSIFICATION_TYPE = U
NORAD_CAT_ID   = 16792
ELEMENT_SET_NO = 999
REV_AT_EPOCH   = 11686
BSTAR          = .97843E-4
MEAN_MOTION_DOT = .874E-5
MEAN_MOTION_DDOT = 0

CCSDS_OMM_VERS = 2.0
CREATION_DATE  = 
ORIGINATOR     = 

OBJECT_NAME    = SL-14 R/B
OBJECT_ID      = 1986-055B
CENTER_NAME    = EARTH
REF_FRAME      = TEME
TIME_SYSTEM    = UTC
MEAN_ELEMENT_THEORY = SGP/SGP4

EPOCH          = 2026-01-04T13:06:42.075648
MEAN_MOTION    = 14.85559513
ECCENTRICITY   = .0018851
INCLINATION    = 82.5198
RA_OF_ASC_NODE = 186.9417
ARG_OF_PERICENTER = 180.1647
MEAN_ANOMALY   = 238.3243

EPHEMERIS_TYPE = 0
CLASSIFICATION_TYPE = U
NORAD_CAT_ID   = 16882
ELEMENT_SET_NO = 999
REV_AT_EPOCH   = 10984
BSTAR          = .94769E-4
MEAN_MOTION_DOT = .846E-5
MEAN_MOTION_DDOT = 0

CCSDS_OMM_VERS = 2.0
CREATION_DATE  = 
ORIGINATOR     = 

OBJECT_NAME    = AJISAI (EGS)
OBJECT_ID      = 1986-061A
CENTER_NAME    = EARTH
REF_FRAME      = TEME
TIME_SYSTEM    = UTC
MEAN_ELEMENT_THEORY = SGP/SGP4

EPOCH          = 2026-01-04T11:30:56.161152
MEAN_MOTION    = 12.44514646
ECCENTRICITY   = .0011314
INCLINATION    = 50.0103
RA_OF_ASC_NODE = 290.7941
ARG_OF_PERICENTER = 122.9869
MEAN_ANOMALY   = 350.6749

EPHEMERIS_TYPE = 0
CLASSIFICATION_TYPE = U
NORAD_CAT_ID   = 16908
ELEMENT_SET_NO = 999
REV_AT_EPOCH   = 46000
BSTAR          = .21394E-3
MEAN_MOTION_DOT = -.67E-6
MEAN_MOTION_DDOT = 0

CCSDS_OMM_VERS = 2.0
CREATION_DATE  = 
ORIGINATOR     = 

OBJECT_NAME    = COSMOS 1812
OBJECT_ID      = 1987-003A
CENTER_NAME    = EARTH
REF_FRAME      = TEME
TIME_SYSTEM    = UTC
MEAN_ELEMENT_THEORY = SGP/SGP4

EPOCH          = 2026-01-04T04:17:59.289216
MEAN_MOTION    = 15.81173351
ECCENTRICITY   = .00045781
INCLINATION    = 82.4860
RA_OF_ASC_NODE = 267.6380
ARG_OF_PERICENTER = 59.7974
MEAN_ANOMALY   = 300.3747

EPHEMERIS_TYPE = 0
CLASSIFICATION_TYPE = U
NORAD_CAT_ID   = 17295
ELEMENT_SET_NO = 999
REV_AT_EPOCH   = 13419
BSTAR          = .83830597E-3
MEAN_MOTION_DOT = .166397E-2
MEAN_MOTION_DDOT = 0

CCSDS_OMM_VERS = 2.0
CREATION_DATE  = 
ORIGINATOR     = 

OBJECT_NAME    = SL-14 R/B
OBJECT_ID      = 1987-024B
CENTER_NAME    = EARTH
REF_FRAME      = TEME
TIME_SYSTEM    = UTC
MEAN_ELEMENT_THEORY = SGP/SGP4

EPOCH          = 2026-01-04T09:41:45.401280
MEAN_MOTION    = 14.86055391
ECCENTRICITY   = .0019539
INCLINATION    = 82.5288
RA_OF_ASC_NODE = 153.1638
ARG_OF_PERICENTER = 112.0314
MEAN_ANOMALY   = 248.2981

EPHEMERIS_TYPE = 0
CLASSIFICATION_TYPE = U
NORAD_CAT_ID   = 17567
ELEMENT_SET_NO = 999
REV_AT_EPOCH   = 7858
BSTAR          = .10144E-3
MEAN_MOTION_DOT = .915E-5
MEAN_MOTION_DDOT = 0

CCSDS_OMM_VERS = 2.0
CREATION_DATE  = 
ORIGINATOR     = 

OBJECT_NAME    = COSMOS 1833
OBJECT_ID      = 1987-027A
CENTER_NAME    = EARTH
REF_FRAME      = TEME
TIME_SYSTEM    = UTC
MEAN_ELEMENT_THEORY = SGP/SGP4

EPOCH          = 2026-01-04T12:17:53.900160
MEAN_MOTION    = 14.13035984
ECCENTRICITY   = .0023617
INCLINATION    = 70.9183
RA_OF_ASC_NODE = 100.9078
ARG_OF_PERICENTER = 300.0868
MEAN_ANOMALY   = 59.7911

EPHEMERIS_TYPE = 0
CLASSIFICATION_TYPE = U
NORAD_CAT_ID   = 17589
ELEMENT_SET_NO = 999
REV_AT_EPOCH   = 125
BSTAR          = .21498E-3
MEAN_MOTION_DOT = .354E-5
MEAN_MOTION_DDOT = 0

CCSDS_OMM_VERS = 2.0
CREATION_DATE  = 
ORIGINATOR     = 

OBJECT_NAME    = SL-16 R/B
OBJECT_ID      = 1987-027B
CENTER_NAME    = EARTH
REF_FRAME      = TEME
TIME_SYSTEM    = UTC
MEAN_ELEMENT_THEORY = SGP/SGP4

EPOCH          = 2026-01-04T12:44:23.934912
MEAN_MOTION    = 14.17156504
ECCENTRICITY   = .0006901
INCLINATION    = 71.0031
RA_OF_ASC_NODE = 51.6934
ARG_OF_PERICENTER = 235.6640
MEAN_ANOMALY   = 124.3831

EPHEMERIS_TYPE = 0
CLASSIFICATION_TYPE = U
NORAD_CAT_ID   = 17590
ELEMENT_SET_NO = 999
REV_AT_EPOCH   = 625
BSTAR          = .9165E-4
MEAN_MOTION_DOT = .137E-5
MEAN_MOTION_DDOT = 0

CCSDS_OMM_VERS = 2.0
CREATION_DATE  = 
ORIGINATOR     = 

OBJECT_NAME    = SL-14 R/B
OBJECT_ID      = 1987-038B
CENTER_NAME    = EARTH
REF_FRAME      = TEME
TIME_SYSTEM    = UTC
MEAN_ELEMENT_THEORY = SGP/SGP4

EPOCH          = 2026-01-04T10:23:51.199008
MEAN_MOTION    = 14.85289284
ECCENTRICITY   = .001987
INCLINATION    = 82.5013
RA_OF_ASC_NODE = 357.3235
ARG_OF_PERICENTER = 21.5261
MEAN_ANOMALY   = 338.6786

EPHEMERIS_TYPE = 0
CLASSIFICATION_TYPE = U
NORAD_CAT_ID   = 17912
ELEMENT_SET_NO = 999
REV_AT_EPOCH   = 6969
BSTAR          = .9587E-4
MEAN_MOTION_DOT = .85E-5
MEAN_MOTION_DDOT = 0

CCSDS_OMM_VERS = 2.0
CREATION_DATE  = 
ORIGINATOR     = 

OBJECT_NAME    = COSMOS 1844
OBJECT_ID      = 1987-041A
CENTER_NAME    = EARTH
REF_FRAME      = TEME
TIME_SYSTEM    = UTC
MEAN_ELEMENT_THEORY = SGP/SGP4

EPOCH          = 2026-01-04T09:40:34.099680
MEAN_MOTION    = 14.14538864
ECCENTRICITY   = .0028763
INCLINATION    = 70.8987
RA_OF_ASC_NODE = 169.7698
ARG_OF_PERICENTER = 121.3367
MEAN_ANOMALY   = 239.0576

EPHEMERIS_TYPE = 0
CLASSIFICATION_TYPE = U
NORAD_CAT_ID   = 17973
ELEMENT_SET_NO = 999
REV_AT_EPOCH   = 99449
BSTAR          = .99133E-4
MEAN_MOTION_DOT = .143E-5
MEAN_MOTION_DDOT = 0

CCSDS_OMM_VERS = 2.0
CREATION_DATE  = 
ORIGINATOR     = 

OBJECT_NAME    = SL-14 R/B
OBJECT_ID      = 1987-055B
CENTER_NAME    = EARTH
REF_FRAME      = TEME
TIME_SYSTEM    = UTC
MEAN_ELEMENT_THEORY = SGP/SGP4

EPOCH          = 2026-01-04T11:43:27.739200
MEAN_MOTION    = 14.85548974
ECCENTRICITY   = .0019637
INCLINATION    = 82.4982
RA_OF_ASC_NODE = 49.5467
ARG_OF_PERICENTER = 222.7827
MEAN_ANOMALY   = 137.1862

EPHEMERIS_TYPE = 0
CLASSIFICATION_TYPE = U
NORAD_CAT_ID   = 18153
ELEMENT_SET_NO = 999
REV_AT_EPOCH   = 6040
BSTAR          = .81855E-4
MEAN_MOTION_DOT = .733E-5
MEAN_MOTION_DDOT = 0

CCSDS_OMM_VERS = 2.0
CREATION_DATE  = 
ORIGINATOR     = 

OBJECT_NAME    = COSMOS 1867
OBJECT_ID      = 1987-060A
CENTER_NAME    = EARTH
REF_FRAME      = TEME
TIME_SYSTEM    = UTC
MEAN_ELEMENT_THEORY = SGP/SGP4

EPOCH          = 2026-01-04T12:25:28.529184
MEAN_MOTION    = 14.31491094
ECCENTRICITY   = .0013802
INCLINATION    = 65.0108
RA_OF_ASC_NODE = 126.4156
ARG_OF_PERICENTER = 273.4535
MEAN_ANOMALY   = 86.4971

EPHEMERIS_TYPE = 0
CLASSIFICATION_TYPE = U
NORAD_CAT_ID   = 18187
ELEMENT_SET_NO = 999
REV_AT_EPOCH   = 1075
BSTAR          = .48524E-4
MEAN_MOTION_DOT = .29E-6
MEAN_MOTION_DDOT = 0

CCSDS_OMM_VERS = 2.0
CREATION_DATE  = 
ORIGINATOR     = 

OBJECT_NAME    = SL-14 R/B
OBJECT_ID      = 1988-001B
CENTER_NAME    = EARTH
REF_FRAME      = TEME
TIME_SYSTEM    = UTC
MEAN_ELEMENT_THEORY = SGP/SGP4

EPOCH          = 2026-01-04T05:02:39.355872
MEAN_MOTION    = 14.85451609
ECCENTRICITY   = .0019613
INCLINATION    = 82.5127
RA_OF_ASC_NODE = 256.0139
ARG_OF_PERICENTER = 91.4214
MEAN_ANOMALY   = 268.9249

EPHEMERIS_TYPE = 0
CLASSIFICATION_TYPE = U
NORAD_CAT_ID   = 18749
ELEMENT_SET_NO = 999
REV_AT_EPOCH   = 3245
BSTAR          = .84652E-4
MEAN_MOTION_DOT = .756E-5
MEAN_MOTION_DDOT = 0

